SL-16 R/B               
1 19120U 88039B   17037.13081420 -.00000175  00000-0 -60295-4 0  9999
2 19120  71.0127 241.8368 0020849  23.6139 336.5938 14.19165688487793
COSMOS 1953             
1 19210U 88050A   17035.86953500  .00000383  00000-0  24815-4 0  9994
2 19210  82.5186 161.6602 0013258 359.4129   0.7080 15.05124821536805
SL-8 R/B                
1 19257U 88053B   17037.51216090  .00000045  00000-0  23809-4 0  9995
2 19257  74.0486  96.7737 0020079  16.3652  87.2193 14.37344060499997
COSMOS 1975             
1 19573U 88093A   17036.74790786  .00000908  00000-0  63459-4 0  9996
2 19573  82.5210 112.6462 0015248  32.0007 328.2142 15.04034600540058
SL-14 R/B               
1 19574U 88093B   17036.19522118  .00000074  00000-0  60795-5 0  9993
2 19574  82.5309 268.4643 0021375 187.8391 317.2633 14.83201058529882
SL-16 R/B               
1 19650U 88102B   17035.88449811  .00000241  00000-0  14700-3 0  9991
2 19650  71.0002 293.2926 0013484  15.6203 344.5333 14.15751427456998
INTERCOSMOS 24          
1 20261U 89080A   17037.20773301  .00000086  00000-0  18081-4 0  9993
2 20261  82.5918  94.8270 1205008  38.8605 329.3157 12.55855158249529
SL-14 R/B               
1 20262U 89080C   17036.79493668  .00000100  00000-0  25614-4 0  9999
2 20262  82.5959 140.2498 1237697 196.0711 159.7535 12.48846413245311
DELTA 1 R/B             
1 20323U 89089B   17036.49777008  .00000056  00000-0  23337-4 0  9996
2 20323  97.0920   3.2534 0072944 133.8404 226.8853 14.48174545435666
DELTA 2 R/B(1)          
1 20453U 90008B   17036.83172056  .00001544  00000-0  91446-4 0  9992
2 20453  35.6249 281.8162 0290440 156.1848 205.2610 14.82807101428692
COSMOS 2058             
1 20465U 90010A   17037.45000478  .00000390  00000-0  31119-4 0  9994
2 20465  82.4899  13.5464 0016234  20.7815 339.4064 14.97420327465778
SL-14 R/B               
1 20466U 90010B   17036.85215516  .00000069  00000-0  57400-5 0  9994
2 20466  82.5053 135.4980 0021730  52.7866 307.5326 14.81264460458054
SL-14 R/B               
1 20511U 90018B   17037.21209935  .00000076  00000-0  70064-5 0  9991
2 20511  82.5210  76.0859 0017540 177.5625 249.7935 14.79923664452690
HST                     
1 20580U 90037B   17035.95699074  .00000553  00000-0  23196-4 0  9997
2 20580  28.4691 161.2031 0002639 186.5892 124.8295 15.08662442270200
SL-16 R/B               
1 20625U 90046B   17035.62345027  .00000237  00000-0  14793-3 0  9998
2 20625  70.9981  67.3624 0015978 303.4447  56.5147 14.14609002379097
COSMOS 2084             
1 20663U 90055A   17037.15775961  .00000231  00000-0  37140-4 0  9990
2 20663  62.7930 305.4238 0138753  77.1579 284.4975 14.91470780440260
SL-6 R/B(2)             
1 20666U 90055D   17035.90999412  .00000136  00000-0  29267-4 0  9998
2 20666  62.7821 228.7296 0136082  96.1450 265.5167 14.91826002441979
SL-8 R/B                
1 20775U 90078B   17036.36756039  .00001842  00000-0  90270-4 0  9998
2 20775  82.9315 156.1937 0591960  28.2337 334.9631 14.30010554329925
SL-8 R/B                
1 21088U 91006B   17036.39699035  .00000032  00000-0  17602-4 0  9991
2 21088  82.9435 118.2208 0021669 332.3128  75.4142 13.77036633307462
OKEAN-3                 
1 21397U 91039A   17037.18398595  .00000277  00000-0  24523-4 0  9996
2 21397  82.5203 262.8370 0017044 319.3454  40.6493 14.92406687390248
COSMOS 2151             
1 21422U 91042A   17037.47050587  .00000224  00000-0  19708-4 0  9998
2 21422  82.5009  10.8309 0014775  17.3793 342.7929 14.91771101389011
SL-14 R/B               
1 21423U 91042B   17035.72199434  .00000053  00000-0  40167-5 0  9994
2 21423  82.4926  85.2116 0016749 328.7638  31.2578 14.79676113382994
ERS-1                   
1 21574U 91050A   17035.88238139  .00000089  00000-0  44046-4 0  9991
2 21574  98.4449 345.2525 0033009 352.2861   7.7814 14.37557544338597
ARIANE 40 R/B           
1 21610U 91050F   17035.82354171 -.00000000  00000-0  14023-4 0  9997
2 21610  98.6245  91.4493 0002823 359.6725 130.6952 14.40780852341056
INTERCOSMOS 25          
1 21819U 91086A   17037.20818029 -.00000253  00000-0 -52756-4 0  9994
2 21819  82.5523 141.8291 1526576   5.7011 355.9401 12.04406320 96510
SL-14 R/B               
1 21820U 91086B   17035.87507694  .00000310  00000-0  58781-4 0  9996
2 21820  82.5599 196.5054 1577353 191.3122 164.8178 11.93264550 91004
SL-8 R/B                
1 21876U 92008B   17036.53356782 -.00000026  00000-0 -42647-4 0  9996
2 21876  82.9248 215.0437 0035556  43.3273   9.5052 13.75594427253285
SL-8 R/B                
1 21938U 92020B   17035.80506228  .00000004  00000-0 -11169-4 0  9990
2 21938  82.9290  98.7583 0028866 198.8607 299.3698 13.75259614245093
SL-16 R/B               
1 22220U 92076B   17036.89700109 -.00000233  00000-0 -93120-4 0  9992
2 22220  71.0017 335.6068 0010727 118.3679 297.9364 14.16408547252187
SL-16 R/B               
1 22285U 92093B   17035.82871672 -.00000282  00000-0 -12082-3 0  9999
2 22285  71.0226 129.9372 0005997 308.2128  51.8454 14.15006848243537
COSMOS 2228             
1 22286U 92094A   17037.42501996  .00000259  00000-0  25634-4 0  9998
2 22286  82.5234 137.3891 0020413 191.4827 168.5927 14.87604132303055
SL-16 R/B               
1 22566U 93016B   17037.27925093 -.00000189  00000-0 -73142-4 0  9996
2 22566  71.0099 341.7074 0011814 321.7359  38.2924 14.14945940232758
COSMOS 2242             
1 22626U 93024A   17036.83852698  .00000258  00000-0  25627-4 0  9993
2 22626  82.5239 165.6399 0018865 192.5273 167.5479 14.87603768286628
SL-16 R/B               
1 22803U 93059B   17036.83111772  .00000064  00000-0  56026-4 0  9991
2 22803  70.9903 166.2318 0019025 230.3957 129.5488 14.16762308209677
ARIANE 40 R/B           
1 22830U 93061H   17037.14607012 -.00000059  00000-0 -45746-5 0  9990
2 22830  98.8888  49.5205 0010180 314.5887  90.3552 14.31411923219507
COSMOS 2278             
1 23087U 94023A   17035.81950060 -.00000080  00000-0 -17610-4 0  9992
2 23087  71.0541 275.6306 0007100  44.2747 315.8942 14.13743866175542
SL-16 R/B               
1 23088U 94023B   17036.82372538  .00000155  00000-0  10553-3 0  9992
2 23088  70.9992 197.7660 0005406 288.1113  71.9421 14.14654618176967
SL-16 R/B               
1 23343U 94074B   17037.15497822 -.00000018  00000-0  50930-5 0  9997
2 23343  98.1701  72.8167 0007972 127.1794 274.0754 14.76687419197492
SL-16 R/B               
1 23405U 94077B   17036.66630034  .00000022  00000-0  35924-4 0  9997
2 23405  70.9835 131.9212 0002994 208.9523 151.1434 14.15189138146900
ERS-2                   
1 23560U 95021A   17037.06981632  .00001806  00000-0  87377-4 0  9997
2 23560  98.5432  11.9236 0004680  45.5151 314.6462 15.20192113155462
ARIANE 40+ R/B          
1 23561U 95021B   17037.08811684  .00000046  00000-0  30835-4 0  9991
2 23561  98.7884  35.2855 0005959 290.6358 110.8130 14.37793773142419
SL-16 R/B               
1 23705U 95058B   17035.77020477  .00000091  00000-0  71239-4 0  9990
2 23705  71.0236 306.8523 0011187 149.1420 211.0362 14.15097847 98158
SL-16 R/B               
1 24298U 96051B   17037.13920010  .00000064  00000-0  60774-4 0  9998
2 24298  70.8498 338.2642 0013843   6.4438 353.6858 14.12476485 53317
ORBVIEW 2 (SEASTAR)     
1 24883U 97037A   17035.83689257  .00000022  00000-0  23698-4 0  9991
2 24883  98.5321 146.3329 0003290 126.2472 233.9017 14.33368643 32697
SL-16 R/B               
1 25400U 98043G   17036.94902067 -.00000001  00000-0  17321-4 0  9999
2 25400  98.4725 349.4764 0009192 325.5963  34.4621 14.25402775966377
SL-16 R/B               
1 25407U 98045B   17036.87479931  .00000212  00000-0  13193-3 0  9994
2 25407  71.0132 317.3796 0006270  32.9883 327.1630 14.15759392957591
ISS (ZARYA)             
1 25544U 98067A   17035.90786378  .00006972  00000-0  11174-3 0  9995
2 25544  51.6451 337.7403 0007453 154.5074 275.2749 15.54298665 41187
SL-8 R/B                
1 25723U 99022C   17037.51560742  .00005852  00000-0  10166-3 0  9996
2 25723  48.4165 143.1862 0009405 129.9725 230.2047 15.52198802986188
CZ-4B R/B               
1 25732U 99025C   17037.18425330  .00000003  00000-0  23524-4 0  9991
2 25732  98.9879  37.3640 0038381 103.8495 317.7794 14.17624976918077
OKEAN-O                 
1 25860U 99039A   17035.92213490  .00000061  00000-0  16352-4 0  9995
2 25860  98.1730  19.0884 0001213 112.9870 247.1468 14.76445207944218
SL-16 R/B               
1 25861U 99039B   17036.86325729  .00000047  00000-0  13737-4 0  9997
2 25861  98.0879   7.4220 0016511 140.6998 249.7682 14.78384183946375
TERRA                   
1 25994U 99068A   17037.32065298 -.00000046  00000-0 -14440-6 0  9995
2 25994  98.1969 114.1924 0000929  97.3324 262.7968 14.57113720911612
SL-14 R/B               
1 26874U 01032B   17035.93329590  .00059174  19024-6  12153-3 0  9992
2 26874  82.4527  23.9973 0005633  61.4905 298.6938 15.99154781872598
ENVISAT                 
1 27386U 02009A   17037.42427176 -.00000016  00000-0  86401-5 0  9990
2 27386  98.2509  88.0381 0001018  84.5589 275.5713 14.37887637782289
IDEFIX & ARIANE 42P R/B 
1 27422U 02021B   17035.77628779 -.00000044  00000-0 -11550-5 0  9998
2 27422  98.2282  43.3854 0011153 269.6092  90.3813 14.29252001769655
AQUA                    
1 27424U 02022A   17035.91209007  .00000124  00000-0  37700-4 0  9997
2 27424  98.2249 339.1223 0001521 114.1047 319.9367 14.57105866784960
CZ-4B R/B               
1 27432U 02024C   17036.56899564  .00000000  00000-0  23549-4 0  9992
2 27432  98.9708   9.4999 0051258  45.6189  63.8331 14.14035166760193
MIDORI II (ADEOS-II)    
1 27597U 02056A   17036.53756098  .00000064  00000-0  43028-4 0  9994
2 27597  98.3526  11.8109 0001544  47.7276 312.4036 14.27265163736644
H-2A R/B                
1 27601U 02056E   17036.31897044  .00000022  00000-0  23637-4 0  9991
2 27601  98.3929 108.5768 0071423 327.1824  73.9920 14.31761385738947
